IRIDIUM 139             
1 42963U 17061J   26187.65553954  .00000193  00000+0  61890-4 0  9995
2 42963  86.3965  17.1779 0002215  91.4826 268.6623 14.34218581457630
IRIDIUM 125             
1 42964U 17061K   26187.57308844  .00000209  00000+0  67541-4 0  9990
2 42964  86.3965  17.2739 0001696  82.5054 277.6334 14.34221870457638
IRIDIUM 135             
1 43070U 17083A   26187.40767522  .00000061  00000+0  14754-4 0  9991
2 43070  86.3982 313.9802 0002184  93.2291 266.9155 14.34218109446909
IRIDIUM 138             
1 43071U 17083B   26187.85165569  .00000062  00000+0  15106-4 0  9997
2 43071  86.3995 313.4929 0002101  89.4730 270.6707 14.34218277446959
IRIDIUM 116             
1 43072U 17083C   26187.40133213  .00000343  00000+0  11538-3 0  9996
2 43072  86.3980 313.9683 0002322 100.6789 259.4668 14.34218745446929
IRIDIUM 130             
1 43073U 17083D   26187.85799797  .00000087  00000+0  24021-4 0  9998
2 43073  86.3989 314.0546 0002132 100.4453 259.6983 14.34218303446937
IRIDIUM 151             
1 43074U 17083E   26187.41401688  .00000108  00000+0  31413-4 0  9997
2 43074  86.3984 314.0214 0002217  94.1646 265.9803 14.34218609446897
IRIDIUM 134             
1 43075U 17083F   26187.87068372 -.00000038  00000+0 -20486-4 0  9999
2 43075  86.3981 313.8389 0002052  95.4828 264.6602 14.34217455446923
IRIDIUM 137             
1 43076U 17083G   26187.39498969  .00000111  00000+0  32508-4 0  9994
2 43076  86.3985 314.1305 0002640  97.3462 262.8034 14.34218660446926
IRIDIUM 141             
1 43077U 17083H   26187.38864732  .00000062  00000+0  14974-4 0  9991
2 43077  86.3980 313.9628 0002180  91.8895 268.2550 14.34218071446924
IRIDIUM 153             
1 43078U 17083J   26187.68966779  .00000277  00000+0  91792-4 0  9990
2 43078  86.3964 282.3175 0002113  93.2382 266.9056 14.34218731448073
IRIDIUM 131             
1 43079U 17083K   26187.86434167  .00000011  00000+0 -32544-5 0  9990
2 43079  86.3984 313.9514 0002121  93.3240 266.8199 14.34217791446921
IRIDIUM 144             
1 43249U 18030A   26187.69601137  .00000100  00000+0  28618-4 0  9990
2 43249  86.3964 282.2436 0002299  98.0245 262.1211 14.34218132432932
IRIDIUM 149             
1 43250U 18030B   26187.70235287  .00000108  00000+0  31397-4 0  9999
2 43250  86.3961 282.2075 0002265  93.5688 266.5767 14.34218704432955
